[{"OBJECT_NAME":"TIANMU-1 19","OBJECT_ID":"2023-208A","EPOCH":"2026-03-09T22:13:36.801696","MEAN_MOTION":15.2984143,"ECCENTRICITY":0.00039292,"INCLINATION":97.4383,"RA_OF_ASC_NODE":184.9132,"ARG_OF_PERICENTER":316.2611,"MEAN_ANOMALY":43.8317,"EPHEMERIS_TYPE":0,"CLASSIFICATION_TYPE":"U","NORAD_CAT_ID":58660,"ELEMENT_SET_NO":999,"REV_AT_EPOCH":12214,"BSTAR":0.00040995676,"MEAN_MOTION_DOT":0.00011779,"MEAN_MOTION_DDOT":0},{"OBJECT_NAME":"STARLINK-34494","OBJECT_ID":"2025-137T","EPOCH":"2026-03-09T22:40:37.860096","MEAN_MOTION":15.30209002,"ECCENTRICITY":0.00023273,"INCLINATION":53.1593,"RA_OF_ASC_NODE":334.0758,"ARG_OF_PERICENTER":152.5769,"MEAN_ANOMALY":207.5355,"EPHEMERIS_TYPE":0,"CLASSIFICATION_TYPE":"U","NORAD_CAT_ID":64611,"ELEMENT_SET_NO":999,"REV_AT_EPOCH":4077,"BSTAR":0.0011990034,"MEAN_MOTION_DOT":0.00035332,"MEAN_MOTION_DDOT":0}]
